             JDTDB,            Calendar Date (TDB),                      X,                      Y,                      Z,                     VX,                     VY,                     VZ,                     LT,                     RG,                     RR,
**************************************************************************************************************************************************************************************************************************************************************************
$$SOE
2455458.541666667, A.D. 2010-Sep-19 01:00:00.0000,  1.002013776525697E+00, -7.262853479045056E-02, -3.516682727801245E-06,  9.592022268202617E-04,  1.709095531254212E-02, -9.454263519516398E-07,  5.802331059219565E-03,  1.004642479902907E+00, -2.788625795250900E-04,
2455458.583333333, A.D. 2010-Sep-19 02:00:00.0000,  1.002053490258312E+00, -7.191639433051557E-02, -3.556017942046708E-06,  9.470568549879893E-04,  1.709178538586299E-02, -9.426571995236521E-07,  5.802263949006603E-03,  1.004630860129735E+00, -2.788864630539060E-04,
2455458.625000000, A.D. 2010-Sep-19 03:00:00.0000,  1.002092697923326E+00, -7.120421945648885E-02, -3.595236935074413E-06,  9.349109824777282E-04,  1.709260718924813E-02, -9.398477739010998E-07,  5.802196833096374E-03,  1.004619239370112E+00, -2.789099295313473E-04,
2455458.666666667, A.D. 2010-Sep-19 04:00:00.0000,  1.002131399499939E+00, -7.049201051291318E-02, -3.634338033807396E-06,  9.227646122753671E-04,  1.709342072451532E-02, -9.369983123799842E-07,  5.802129711588977E-03,  1.004607617641369E+00, -2.789329811754571E-04,
2455458.708333333, A.D. 2010-Sep-19 05:00:00.0000,  1.002169594967478E+00, -6.977976784425584E-02, -3.673319575036125E-06,  9.106177473561514E-04,  1.709422599346663E-02, -9.341090536300299E-07,  5.802062584583970E-03,  1.004595994960745E+00, -2.789556202072088E-04,
2455458.750000000, A.D. 2010-Sep-19 06:00:00.0000,  1.002207284305389E+00, -6.906749179490938E-02, -3.712179905549231E-06,  8.984703906846382E-04,  1.709502299788848E-02, -9.311802377090470E-07,  5.801995452180382E-03,  1.004584371345385E+00, -2.789778488506204E-04,
2455458.791666667, A.D. 2010-Sep-19 07:00:00.0000,  1.002244467493245E+00, -6.835518270919232E-02, -3.750917382133509E-06,  8.863225452146592E-04,  1.709581173955173E-02, -9.282121060578023E-07,  5.801928314476700E-03,  1.004572746812343E+00, -2.789996693328558E-04,
2455458.833333333, A.D. 2010-Sep-19 08:00:00.0000,  1.002281144510742E+00, -6.764284093134960E-02, -3.789530371698427E-06,  8.741742138892686E-04,  1.709659222021167E-02, -9.252049014989923E-07,  5.801861171570885E-03,  1.004561121378579E+00, -2.790210838843414E-04,
2455458.875000000, A.D. 2010-Sep-19 09:00:00.0000,  1.002317315337696E+00, -6.693046680555334E-02, -3.828017251294807E-06,  8.620253996407020E-04,  1.709736444160811E-02, -9.221588682475038E-07,  5.801794023560351E-03,  1.004549495060960E+00, -2.790420947388721E-04,
2455458.916666667, A.D. 2010-Sep-19 10:00:00.0000,  1.002352979954045E+00, -6.621806067590362E-02, -3.866376408173959E-06,  8.498761053903288E-04,  1.709812840546536E-02, -9.190742519104124E-07,  5.801726870541971E-03,  1.004537867876260E+00, -2.790627041337246E-04,
2455458.958333333, A.D. 2010-Sep-19 11:00:00.0000,  1.002388138339852E+00, -6.550562288642887E-02, -3.904606239837495E-06,  8.377263340486051E-04,  1.709888411349234E-02, -9.159512994849323E-07,  5.801659712612093E-03,  1.004526239841160E+00, -2.790829143097636E-04,
2455459.000000000, A.D. 2010-Sep-19 12:00:00.0000,  1.002422790475297E+00, -6.479315378108670E-02, -3.942705154140043E-06,  8.255760885150244E-04,  1.709963156738251E-02, -9.127902593686742E-07,  5.801592549866517E-03,  1.004514610972247E+00, -2.791027275115575E-04,
2455459.041666667, A.D. 2010-Sep-19 13:00:00.0000,  1.002456936340682E+00, -6.408065370376445E-02, -3.980671569264346E-06,  8.134253716780725E-04,  1.710037076881398E-02, -9.095913813596460E-07,  5.801525382400499E-03,  1.004502981286016E+00, -2.791221459874849E-04,
2455459.083333333, A.D. 2010-Sep-19 14:00:00.0000,  1.002490575916431E+00, -6.336812299827992E-02, -4.018503913873788E-06,  8.012741864151773E-04,  1.710110171944947E-02, -9.063549166552269E-07,  5.801458210308761E-03,  1.004491350798866E+00, -2.791411719898454E-04,
2455459.125000000, A.D. 2010-Sep-19 15:00:00.0000,  1.002523709183084E+00, -6.265556200838185E-02, -4.056200627115509E-06,  7.891225355926587E-04,  1.710182442093633E-02, -9.030811178634523E-07,  5.801391033685478E-03,  1.004479719527104E+00, -2.791598077749723E-04,
2455459.166666667, A.D. 2010-Sep-19 16:00:00.0000,  1.002556336121304E+00, -6.194297107775072E-02, -4.093760158698220E-06,  7.769704220656823E-04,  1.710253887490657E-02, -8.997702389978845E-07,  5.801323852624281E-03,  1.004468087486940E+00, -2.791780556033386E-04,
2455459.208333333, A.D. 2010-Sep-19 17:00:00.0000,  1.002588456711869E+00, -6.123035054999935E-02, -4.131180968920217E-06,  7.648178486782096E-04,  1.710324508297685E-02, -8.964225354796643E-07,  5.801256667218258E-03,  1.004456454694493E+00, -2.791959177396692E-04,
2455459.250000000, A.D. 2010-Sep-19 18:00:00.0000,  1.002620070935679E+00, -6.051770076867346E-02, -4.168461528772106E-06,  7.526648182629485E-04,  1.710394304674847E-02, -8.930382641580297E-07,  5.801189477559957E-03,  1.004444821165787E+00, -2.792133964530477E-04,
2455459.291666667, A.D. 2010-Sep-19 19:00:00.0000,  1.002651178773750E+00, -5.980502207725241E-02, -4.205600319967932E-06,  7.405113336413055E-04,  1.710463276780735E-02, -8.896176832887713E-07,  5.801122283741368E-03,  1.004433186916750E+00, -2.792304940170269E-04,
2455459.333333333, A.D. 2010-Sep-19 20:00:00.0000,  1.002681780207213E+00, -5.909231481914982E-02, -4.242595835019874E-06,  7.283573976233384E-04,  1.710531424772408E-02, -8.861610525629589E-07,  5.801055085853939E-03,  1.004421551963214E+00, -2.792472127097362E-04,
2455459.375000000, A.D. 2010-Sep-19 21:00:00.0000,  1.002711875217321E+00, -5.837957933771412E-02, -4.279446577275613E-06,  7.162030130077062E-04,  1.710598748805382E-02, -8.826686330792402E-07,  5.800987883988575E-03,  1.004409916320921E+00, -2.792635548139850E-04,
2455459.416666667, A.D. 2010-Sep-19 22:00:00.0000,  1.002741463785439E+00, -5.766681597622930E-02, -4.316151061024155E-06,  7.040481825816229E-04,  1.710665249033636E-02, -8.791406873818015E-07,  5.800920678235621E-03,  1.004398280005512E+00, -2.792795226173758E-04,
2455459.458333333, A.D. 2010-Sep-19 23:00:00.0000,  1.002770545893050E+00, -5.695402507791557E-02, -4.352707811470932E-06,  6.918929091208124E-04,  1.710730925609602E-02, -8.755774794377966E-07,  5.800853468684876E-03,  1.004386643032536E+00, -2.792951184124044E-04,
2455459.500000000, A.D. 2010-Sep-20 00:00:00.0000,  1.002799121521751E+00, -5.624120698592985E-02, -4.389115364896554E-06,  6.797371953894602E-04,  1.710795778684168E-02, -8.719792746506837E-07,  5.800786255425587E-03,  1.004375005417446E+00, -2.793103444965652E-04,
2455459.541666667, A.D. 2010-Sep-20 01:00:00.0000,  1.002827190653256E+00, -5.552836204336653E-02, -4.425372268659921E-06,  6.675810441401682E-04,  1.710859808406674E-02, -8.683463398684335E-07,  5.800719038546448E-03,  1.004363367175597E+00, -2.793252031724574E-04,
2455459.583333333, A.D. 2010-Sep-20 02:00:00.0000,  1.002854753269391E+00, -5.481549059325819E-02, -4.461477081260474E-06,  6.554244581139124E-04,  1.710923014924904E-02, -8.646789433763471E-07,  5.800651818135594E-03,  1.004351728322252E+00, -2.793396967478863E-04,
2455459.625000000, A.D. 2010-Sep-20 03:00:00.0000,  1.002881809352097E+00, -5.410259297857604E-02, -4.497428372391120E-06,  6.432674400399976E-04,  1.710985398385086E-02, -8.609773549011602E-07,  5.800584594280608E-03,  1.004340088872574E+00, -2.793538275359625E-04,
2455459.666666667, A.D. 2010-Sep-20 04:00:00.0000,  1.002908358883431E+00, -5.338966954223079E-02, -4.533224723050285E-06,  6.311099926360160E-04,  1.711046958931887E-02, -8.572418456305351E-07,  5.800517367068519E-03,  1.004328448841631E+00, -2.793675978552074E-04,
2455459.708333333, A.D. 2010-Sep-20 05:00:00.0000,  1.002934401845559E+00, -5.267672062707312E-02, -4.568864725529463E-06,  6.189521186078058E-04,  1.711107696708408E-02, -8.534726881925430E-07,  5.800450136585787E-03,  1.004316808244393E+00, -2.793810100296482E-04,
2455459.750000000, A.D. 2010-Sep-20 06:00:00.0000,  1.002959938220761E+00, -5.196374657589443E-02, -4.604346983534616E-06,  6.067938206494116E-04,  1.711167611856175E-02, -8.496701566751559E-07,  5.800382902918321E-03,  1.004305167095737E+00, -2.793940663889165E-04,
2455459.791666667, A.D. 2010-Sep-20 07:00:00.0000,  1.002984967991429E+00, -5.125074773142754E-02, -4.639670112204849E-06,  5.946351014430443E-04,  1.711226704515139E-02, -8.458345266252212E-07,  5.800315666151466E-03,  1.004293525410437E+00, -2.794067692683483E-04,
2455459.833333333, A.D. 2010-Sep-20 08:00:00.0000,  1.003009491140067E+00, -5.053772443634717E-02, -4.674832738233809E-06,  5.824759636590468E-04,  1.711284974823668E-02, -8.419660750443577E-07,  5.800248426370000E-03,  1.004281883203174E+00, -2.794191210090727E-04,
2455459.875000000, A.D. 2010-Sep-20 09:00:00.0000,  1.003033507649290E+00, -4.982467703327080E-02, -4.709833499813653E-06,  5.703164099558553E-04,  1.711342422918538E-02, -8.380650804063964E-07,  5.800181183658147E-03,  1.004270240488530E+00, -2.794311239581124E-04,
2455459.916666667, A.D. 2010-Sep-20 10:00:00.0000,  1.003057017501824E+00, -4.911160586475926E-02, -4.744671046824927E-06,  5.581564429799655E-04,  1.711399048934928E-02, -8.341318226471213E-07,  5.800113938099559E-03,  1.004258597280990E+00, -2.794427804684731E-04,
2455459.958333333, A.D. 2010-Sep-20 11:00:00.0000,  1.003080020680502E+00, -4.839851127331738E-02, -4.779344040839680E-06,  5.459960653659031E-04,  1.711454853006415E-02, -8.301665831724771E-07,  5.800046689777317E-03,  1.004246953594937E+00, -2.794540928992341E-04,
